{"type": "FeatureCollection", "features": [ {"type": "Feature", "properties": {"norad_id": 28659, "name": "DIRECTV 8", "group": "intelsat", "lat": -0.015656147394826254, "lon": 162.55283458037317, "alt_km": 35783.14296181968, "timestamp": "2025-12-04T13:52:00.115511+00:00", "meta": {"OBJECT_NAME": "DIRECTV 8", "OBJECT_ID": "2005-019A", "EPOCH": "2025-12-04T06:18:43.784928", "MEAN_MOTION": 1.00277091, "ECCENTRICITY": 0.00033893, "INCLINATION": 0.017, "RA_OF_ASC_NODE": 320.346, "ARG_OF_PERICENTER": 286.4136, "MEAN_ANOMALY": 162.2188, "EPHEMERIS_TYPE": 0, "CLASSIFICATION_TYPE": "U", "NORAD_CAT_ID": 28659, "ELEMENT_SET_NO": 999, "REV_AT_EPOCH": 7511, "BSTAR": 0, "MEAN_MOTION_DOT": 1.6e-07, "MEAN_MOTION_DDOT": 0}, "tle": {"line1": "1 28659U 05019A   25338.26300677  .00000016  00000+0  00000+0 0  9992", "line2": "2 28659   0.0170 320.3460 0003389 286.4136 162.2188  1.00277091 75110"}}, "geometry": {"type": "Point", "coordinates": [162.55283458037317, -0.015656147394826254]}}, {"type": "Feature", "properties": {"norad_id": 28702, "name": "GALAXY 28 (G-28)", "group": "intelsat", "lat": 2.5836221856387893, "lon": -167.06419269534095, "alt_km": 35779.983693515074, "timestamp": "2025-12-04T13:52:00.115522+00:00", "meta": {"OBJECT_NAME": "GALAXY 28 (G-28)", "OBJECT_ID": "2005-022A", "EPOCH": "2025-12-04T06:27:20.460384", "MEAN_MOTION": 1.00272167, "ECCENTRICITY": 0.00026418, "INCLINATION": 2.797, "RA_OF_ASC_NODE": 81.3802, "ARG_OF_PERICENTER": 171.0874, "MEAN_ANOMALY": 189.0166, "EPHEMERIS_TYPE": 0, "CLASSIFICATION_TYPE": "U", "NORAD_CAT_ID": 28702, "ELEMENT_SET_NO": 999, "REV_AT_EPOCH": 5002, "BSTAR": 0, "MEAN_MOTION_DOT": -1.73e-06, "MEAN_MOTION_DDOT": 0}, "tle": {"line1": "1 28702U 05022A   25338.26898681 -.00000173  00000+0  00000+0 0  9997", "line2": "2 28702   2.7970  81.3802 0002641 171.0874 189.0166  1.00272167 50023"}}, "geometry": {"type": "Point", "coordinates": [-167.06419269534095, 2.5836221856387893]}}, {"type": "Feature", "properties": {"norad_id": 29236, "name": "GALAXY 16 (G-16)", "group": "intelsat", "lat": -0.015335938169739832, "lon": -177.41278772651336, "alt_km": 35782.67741258822, "timestamp": "2025-12-04T13:52:00.115534+00:00", "meta": {"OBJECT_NAME": "GALAXY 16 (G-16)", "OBJECT_ID": "2006-023A", "EPOCH": "2025-12-04T06:24:28.234944", "MEAN_MOTION": 1.00271134, "ECCENTRICITY": 0.00029567, "INCLINATION": 0.0258, "RA_OF_ASC_NODE": 212.498, "ARG_OF_PERICENTER": 43.457, "MEAN_ANOMALY": 174.4974, "EPHEMERIS_TYPE": 0, "CLASSIFICATION_TYPE": "U", "NORAD_CAT_ID": 29236, "ELEMENT_SET_NO": 999, "REV_AT_EPOCH": 7101, "BSTAR": 0, "MEAN_MOTION_DOT": -1.11e-06, "MEAN_MOTION_DDOT": 0}, "tle": {"line1": "1 29236U 06023A   25338.26699346 -.00000111  00000+0  00000+0 0  9991", "line2": "2 29236   0.0258 212.4980 0002956  43.4570 174.4974  1.00271134 71014"}}, "geometry": {"type": "Point", "coordinates": [-177.41278772651336, -0.015335938169739832]}}, {"type": "Feature", "properties": {"norad_id": 29494, "name": "DIRECTV 9S", "group": "intelsat", "lat": 1.8881023187686041, "lon": -179.6057868521115, "alt_km": 35782.118133195974, "timestamp": "2025-12-04T13:52:00.115546+00:00", "meta": {"OBJECT_NAME": "DIRECTV 9S", "OBJECT_ID": "2006-043A", "EPOCH": "2025-12-04T06:23:50.795232", "MEAN_MOTION": 1.00270534, "ECCENTRICITY": 0.00032372, "INCLINATION": 1.9168, "RA_OF_ASC_NODE": 83.3004, "ARG_OF_PERICENTER": 169.838, "MEAN_ANOMALY": 174.9605, "EPHEMERIS_TYPE": 0, "CLASSIFICATION_TYPE": "U", "NORAD_CAT_ID": 29494, "ELEMENT_SET_NO": 999, "REV_AT_EPOCH": 4942, "BSTAR": 0, "MEAN_MOTION_DOT": -9.8e-07, "MEAN_MOTION_DDOT": 0}, "tle": {"line1": "1 29494U 06043A   25338.26656013 -.00000098  00000+0  00000+0 0  9997", "line2": "2 29494   1.9168  83.3004 0003237 169.8380 174.9605  1.00270534 49426"}}, "geometry": {"type": "Point", "coordinates": [-179.6057868521115, 1.8881023187686041]}}, {"type": "Feature", "properties": {"norad_id": 31307, "name": "GALAXY 17 (G-17)", "group": "intelsat", "lat": 2.2397145217022807, "lon": -163.3950053734197, "alt_km": 35767.45636522786, "timestamp": "2025-12-04T13:52:00.115561+00:00", "meta": {"OBJECT_NAME": "GALAXY 17 (G-17)", "OBJECT_ID": "2007-016B", "EPOCH": "2025-12-04T06:28:27.852384", "MEAN_MOTION": 1.00270323, "ECCENTRICITY": 0.00061224, "INCLINATION": 2.4771, "RA_OF_ASC_NODE": 82.3832, "ARG_OF_PERICENTER": 157.7627, "MEAN_ANOMALY": 205.3175, "EPHEMERIS_TYPE": 0, "CLASSIFICATION_TYPE": "U", "NORAD_CAT_ID": 31307, "ELEMENT_SET_NO": 999, "REV_AT_EPOCH": 6785, "BSTAR": 0, "MEAN_MOTION_DOT": -1.92e-06, "MEAN_MOTION_DDOT": 0}, "tle": {"line1": "1 31307U 07016B   25338.26976681 -.00000192  00000+0  00000+0 0  9995", "line2": "2 31307   2.4771  82.3832 0006122 157.7627 205.3175  1.00270323 67856"}}, "geometry": {"type": "Point", "coordinates": [-163.3950053734197, 2.2397145217022807]}}, {"type": "Feature", "properties": {"norad_id": 31862, "name": "DIRECTV 10", "group": "intelsat", "lat": 0.0036167854292181367, "lon": 178.82573326341856, "alt_km": 35787.539384524694, "timestamp": "2025-12-04T13:52:00.115574+00:00", "meta": {"OBJECT_NAME": "DIRECTV 10", "OBJECT_ID": "2007-032A", "EPOCH": "2025-12-04T06:23:20.842944", "MEAN_MOTION": 1.0026682, "ECCENTRICITY": 6.89e-06, "INCLINATION": 0.0012, "RA_OF_ASC_NODE": 68.1966, "ARG_OF_PERICENTER": 212.976, "MEAN_ANOMALY": 145.2097, "EPHEMERIS_TYPE": 0, "CLASSIFICATION_TYPE": "U", "NORAD_CAT_ID": 31862, "ELEMENT_SET_NO": 999, "REV_AT_EPOCH": 4363, "BSTAR": 0, "MEAN_MOTION_DOT": -8.7e-07, "MEAN_MOTION_DDOT": 0}, "tle": {"line1": "1 31862U 07032A   25338.26621346 -.00000087  00000+0  00000+0 0  9997", "line2": "2 31862   0.0012  68.1966 0000068 212.9760 145.2097  1.00266820 43631"}}, "geometry": {"type": "Point", "coordinates": [178.82573326341856, 0.0036167854292181367]}}, {"type": "Feature", "properties": {"norad_id": 32253, "name": "INTELSAT 11 (IS-11)", "group": "intelsat", "lat": 2.974306414094511, "lon": -176.80708387339791, "alt_km": 36112.44996261721, "timestamp": "2025-12-04T13:52:00.115585+00:00", "meta": {"OBJECT_NAME": "INTELSAT 11 (IS-11)", "OBJECT_ID": "2007-044B", "EPOCH": "2025-12-04T06:24:58.187232", "MEAN_MOTION": 0.9904715, "ECCENTRICITY": 0.0009299, "INCLINATION": 3.0566, "RA_OF_ASC_NODE": 81.0713, "ARG_OF_PERICENTER": 161.6588, "MEAN_ANOMALY": 189.8584, "EPHEMERIS_TYPE": 0, "CLASSIFICATION_TYPE": "U", "NORAD_CAT_ID": 32253, "ELEMENT_SET_NO": 999, "REV_AT_EPOCH": 6651, "BSTAR": 0, "MEAN_MOTION_DOT": 2.1e-07, "MEAN_MOTION_DDOT": 0}, "tle": {"line1": "1 32253U 07044B   25338.26734013  .00000021  00000+0  00000+0 0  9998", "line2": "2 32253   3.0566  81.0713 0009299 161.6588 189.8584  0.99047150 66517"}}, "geometry": {"type": "Point", "coordinates": [-176.80708387339791, 2.974306414094511]}}, {"type": "Feature", "properties": {"norad_id": 32388, "name": "HORIZONS-2", "group": "intelsat", "lat": 1.7006861494292413, "lon": -152.1799554799138, "alt_km": 35774.24000345747, "timestamp": "2025-12-04T13:52:00.115597+00:00", "meta": {"OBJECT_NAME": "HORIZONS-2", "OBJECT_ID": "2007-063B", "EPOCH": "2025-12-04T06:31:35.054400", "MEAN_MOTION": 1.00271777, "ECCENTRICITY": 0.00050276, "INCLINATION": 2.098, "RA_OF_ASC_NODE": 83.0544, "ARG_OF_PERICENTER": 181.7244, "MEAN_ANOMALY": 192.6828, "EPHEMERIS_TYPE": 0, "CLASSIFICATION_TYPE": "U", "NORAD_CAT_ID": 32388, "ELEMENT_SET_NO": 999, "REV_AT_EPOCH": 6586, "BSTAR": 0, "MEAN_MOTION_DOT": -2.39e-06, "MEAN_MOTION_DDOT": 0}, "tle": {"line1": "1 32388U 07063B   25338.27193350 -.00000239  00000+0  00000+0 0  9994", "line2": "2 32388   2.0980  83.0544 0005027 181.7244 192.6828  1.00271777 65863"}}, "geometry": {"type": "Point", "coordinates": [-152.1799554799138, 1.7006861494292413]}}, {"type": "Feature", "properties": {"norad_id": 32729, "name": "DIRECTV 11", "group": "intelsat", "lat": 0.01495985795376655, "lon": -177.57007686186432, "alt_km": 35785.93491305802, "timestamp": "2025-12-04T13:52:00.115608+00:00", "meta": {"OBJECT_NAME": "DIRECTV 11", "OBJECT_ID": "2008-013A", "EPOCH": "2025-12-04T06:24:20.746656", "MEAN_MOTION": 1.00269601, "ECCENTRICITY": 2.238e-05, "INCLINATION": 0.0003, "RA_OF_ASC_NODE": 97.7037, "ARG_OF_PERICENTER": 119.9474, "MEAN_ANOMALY": 212.5833, "EPHEMERIS_TYPE": 0, "CLASSIFICATION_TYPE": "U", "NORAD_CAT_ID": 32729, "ELEMENT_SET_NO": 999, "REV_AT_EPOCH": 4363, "BSTAR": 0, "MEAN_MOTION_DOT": -1.1e-06, "MEAN_MOTION_DDOT": 0}, "tle": {"line1": "1 32729U 08013A   25338.26690679 -.00000110  00000+0  00000+0 0  9992", "line2": "2 32729   0.0003  97.7037 0000223 119.9474 212.5833  1.00269601 43638"}}, "geometry": {"type": "Point", "coordinates": [-177.57007686186432, 0.01495985795376655]}}, {"type": "Feature", "properties": {"norad_id": 32951, "name": "GALAXY 18 (G-18)", "group": "intelsat", "lat": 0.003071298261693847, "lon": 158.5981106581304, "alt_km": 35788.35265244706, "timestamp": "2025-12-04T13:52:00.115619+00:00", "meta": {"OBJECT_NAME": "GALAXY 18 (G-18)", "OBJECT_ID": "2008-024A", "EPOCH": "2025-12-04T04:34:52.768128", "MEAN_MOTION": 1.00271412, "ECCENTRICITY": 0.00032353, "INCLINATION": 0.0165, "RA_OF_ASC_NODE": 356.8889, "ARG_OF_PERICENTER": 260.9725, "MEAN_ANOMALY": 121.133, "EPHEMERIS_TYPE": 0, "CLASSIFICATION_TYPE": "U", "NORAD_CAT_ID": 32951, "ELEMENT_SET_NO": 999, "REV_AT_EPOCH": 4389, "BSTAR": 0, "MEAN_MOTION_DOT": 4.1e-07, "MEAN_MOTION_DDOT": 0}, "tle": {"line1": "1 32951U 08024A   25338.19088852  .00000041  00000+0  00000+0 0  9999", "line2": "2 32951   0.0165 356.8889 0003235 260.9725 121.1330  1.00271412 43898"}}, "geometry": {"type": "Point", "coordinates": [158.5981106581304, 0.003071298261693847]}}]}